[{"OBJECT_NAME":"STARLINK-34960","OBJECT_ID":"2025-176X","EPOCH":"2026-03-09T22:45:01.825920","MEAN_MOTION":15.30211699,"ECCENTRICITY":0.00014589,"INCLINATION":53.1605,"RA_OF_ASC_NODE":151.267,"ARG_OF_PERICENTER":81.942,"MEAN_ANOMALY":278.1747,"EPHEMERIS_TYPE":0,"CLASSIFICATION_TYPE":"U","NORAD_CAT_ID":65219,"ELEMENT_SET_NO":999,"REV_AT_EPOCH":3316,"BSTAR":0.00073692971,"MEAN_MOTION_DOT":0.00021538,"MEAN_MOTION_DDOT":0},{"OBJECT_NAME":"NOAA 17 DEB","OBJECT_ID":"2002-032DK","EPOCH":"2026-03-06T06:53:22.349472","MEAN_MOTION":15.29547844,"ECCENTRICITY":0.00135803,"INCLINATION":98.6735,"RA_OF_ASC_NODE":77.6727,"ARG_OF_PERICENTER":131.2945,"MEAN_ANOMALY":228.9463,"EPHEMERIS_TYPE":0,"CLASSIFICATION_TYPE":"U","NORAD_CAT_ID":49481,"ELEMENT_SET_NO":999,"REV_AT_EPOCH":24998,"BSTAR":0.011623019,"MEAN_MOTION_DOT":0.00349096,"MEAN_MOTION_DDOT":0}]
